{"fetched_at":"2026-03-30T06:02:59Z","count":15439,"tles":[{"name":"STARLINK-3512","line1":"1 51743U 22016AF  26087.65657377 -.00000307  00000+0 -11867-5 0  9999","line2":"2 51743  53.2167 223.8987 0001290  80.7370 279.3768 15.08842433226563","category":"Starlink"}]}