{
  "norad_id": 51743,
  "name": "STARLINK-3512",
  "history": [
    {
      "epoch": "2026-03-28T15:45:27.973728Z",
      "apogee_km": 540.6283578772754,
      "perigee_km": 538.8435466555902,
      "latitude_deg": 1.4433328506903962e-06,
      "longitude_deg": 161.45825940366745,
      "height_km": 540.4880599164799,
      "semi_major_axis_km": 6917.872952266433,
      "eccentricity": 0.000129,
      "inclination_deg": 53.2167,
      "raan_deg": 223.8987,
      "arg_perigee_deg": 80.737,
      "mean_anomaly_deg": 279.3768,
      "mean_motion_rev_day": 15.08842433
    }
  ]
}